norad_id,name,regime,epoch,line1,line2,inclination,eccentricity,mean_motion,raan,arg_pericenter,mean_anomaly
40349,O3B FM11,MEO,25033.44557520,1 40349U 14083B   25033.44557520 -.00000012  00000-0  00000+0 0  8061,2 40349   0.0498 351.8128 0008301 233.3118 134.8035  5.00115676185070,0.0498,0.0008301,5.00115676,351.8128,233.3118,134.8035
40349,O3B FM11,MEO,25034.24513242,1 40349U 14083B   25034.24513242 -.00000013  00000-0  00000-0 0    12,2 40349   0.0498 351.8057 0008738 233.0236 135.0956  5.00115673184951,0.0498,0.0008738,5.00115673,351.8057,233.0236,135.0956
40349,O3B FM11,MEO,25034.64491533,1 40349U 14083B   25034.64491533 -.00000014  00000-0  00000-0 0    15,2 40349   0.0498 351.7845 0008515 233.9497 134.1913  5.00115674184972,0.0498,0.0008515,5.00115674,351.7845,233.9497,134.1913
40349,O3B FM11,MEO,25035.44456495,1 40349U 14083B   25035.44456495 -.00000015  00000-0  00000+0 0  8076,2 40349   0.0498 351.6829 0002827 329.2509  39.0410  5.00115635185171,0.0498,0.0002827,5.00115635,351.6829,329.2509,39.041
40349,O3B FM11,MEO,25036.24413329,1 40349U 14083B   25036.24413329 -.00000017  00000-0  00000-0 0    13,2 40349   0.0499 351.5221 0002669 342.1805  26.2787  5.00115422185050,0.0499,0.0002669,5.00115422,351.5221,342.1805,26.2787
40349,O3B FM11,MEO,25037.44347566,1 40349U 14083B   25037.44347566 -.00000020  00000-0  00000-0 0    19,2 40349   0.0498 351.7632 0002574 341.0404  27.1771  5.00115592185113,0.0498,0.0002574,5.00115592,351.7632,341.0404,27.1771
40349,O3B FM11,MEO,25038.24303748,1 40349U 14083B   25038.24303748 -.00000022  00000-0  00000-0 0    14,2 40349   0.0498 351.7401 0002579 341.6864  26.5540  5.00115613185153,0.0498,0.0002579,5.00115613,351.7401,341.6864,26.554
40349,O3B FM11,MEO,25039.84216157,1 40349U 14083B   25039.84216157 -.00000026  00000-0  00000+0 0  8086,2 40349   0.0498 351.7682 0002589 343.2896  24.9224  5.00115624185397,0.0498,0.0002589,5.00115624,351.7682,343.2896,24.9224
40349,O3B FM11,MEO,25040.44183284,1 40349U 14083B   25040.44183284 -.00000027  00000-0  00000-0 0    15,2 40349   0.0497 351.7857 0002592 343.7639  24.4305  5.00115651185265,0.0497,0.0002592,5.00115651,351.7857,343.7639,24.4305
40349,O3B FM11,MEO,25040.64172326,1 40349U 14083B   25040.64172326 -.00000028  00000-0  00000-0 0    13,2 40349   0.0497 351.7884 0002593 343.9271  24.2645  5.00115661185277,0.0497,0.0002593,5.00115661,351.7884,343.9271,24.2645
40349,O3B FM11,MEO,25041.84106691,1 40349U 14083B   25041.84106691 -.00000029  00000-0  00000-0 0    19,2 40349   0.0497 351.8146 0002599 345.0951  23.0705  5.00115645185336,0.0497,0.0002599,5.00115645,351.8146,345.0951,23.0705
40349,O3B FM11,MEO,25043.44019146,1 40349U 14083B   25043.44019146 -.00000029  00000-0  00000-0 0    15,2 40349   0.0497 351.8349 0002604 346.6725  21.4738  5.00115677185416,0.0497,0.0002604,5.00115677,351.8349,346.6725,21.4738
40349,O3B FM11,MEO,25043.64008203,1 40349U 14083B   25043.64008203 -.00000028  00000-0  00000-0 0    18,2 40349   0.0497 351.8408 0002605 346.8723  21.2682  5.00115682185426,0.0497,0.0002605,5.00115682,351.8408,346.8723,21.2682
40349,O3B FM11,MEO,25044.43964447,1 40349U 14083B   25044.43964447 -.00000027  00000-0  00000-0 0    16,2 40349   0.0496 351.8803 0002605 347.5964  20.5053  5.00115694185460,0.0496,0.0002605,5.00115694,351.8803,347.5964,20.5053
40349,O3B FM11,MEO,25044.63953511,1 40349U 14083B   25044.63953511 -.00000027  00000-0  00000-0 0    18,2 40349   0.0496 351.8428 0002605 347.8603  20.2791  5.00115695185474,0.0496,0.0002605,5.00115695,351.8428,347.8603,20.2791
40349,O3B FM11,MEO,25045.63898805,1 40349U 14083B   25045.63898805 -.00000026  00000-0  00000-0 0    12,2 40349   0.0496 351.8586 0002610 348.2695  19.8549  5.00115704185523,0.0496,0.000261,5.00115704,351.8586,348.2695,19.8549
40349,O3B FM11,MEO,25048.83723823,1 40349U 14083B   25048.83723823 -.00000020  00000-0  00000-0 0    18,2 40349   0.0495 351.8975 0002619 351.2856  16.8033  5.00115716185681,0.0495,0.0002619,5.00115716,351.8975,351.2856,16.8033
40349,O3B FM11,MEO,25049.83669128,1 40349U 14083B   25049.83669128 -.00000019  00000-0  00000-0 0    14,2 40349   0.0495 351.8859 0002622 352.4524  15.6493  5.00115723185732,0.0495,0.0002622,5.00115723,351.8859,352.4524,15.6493
40349,O3B FM11,MEO,25050.83614501,1 40349U 14083B   25050.83614501 -.00000018  00000-0  00000-0 0    10,2 40349   0.0495 351.9344 0002632 354.1491  13.9052  5.00115683185787,0.0495,0.0002632,5.00115683,351.9344,354.1491,13.9052
40349,O3B FM11,MEO,25052.63516012,1 40349U 14083B   25052.63516012 -.00000017  00000-0  00000-0 0    17,2 40349   0.0495 351.9471 0002640 355.8121  12.2305  5.00115677185871,0.0495,0.000264,5.00115677,351.9471,355.8121,12.2305
40349,O3B FM11,MEO,25053.83450353,1 40349U 14083B   25053.83450353 -.00000016  00000-0  00000-0 0    14,2 40349   0.0494 352.0452 0002649 356.9634  10.9816  5.00115660185932,0.0494,0.0002649,5.0011566,352.0452,356.9634,10.9816
40349,O3B FM11,MEO,25057.43253376,1 40349U 14083B   25057.43253376 -.00000015  00000-0  00000-0 0    19,2 40349   0.0493 352.2904 0002680   1.2005   6.5010  5.00115632186119,0.0493,0.000268,5.00115632,352.2904,1.2005,6.501
40349,O3B FM11,MEO,25058.43198674,1 40349U 14083B   25058.43198674 -.00000015  00000-0  00000-0 0    19,2 40349   0.0492 352.3587 0002675   1.8349   5.7987  5.00115614186166,0.0492,0.0002675,5.00115614,352.3587,1.8349,5.7987
40349,O3B FM11,MEO,25059.43143995,1 40349U 14083B   25059.43143995 -.00000015  00000-0  00000-0 0    16,2 40349   0.0492 352.4008 0002677   2.7199   4.8721  5.00115588186212,0.0492,0.0002677,5.00115588,352.4008,2.7199,4.8721
40349,O3B FM11,MEO,25066.82739046,1 40349U 14083B   25066.82739046 -.00000028  00000-0  00000-0 0    19,2 40349   0.0490 352.9569 0002713   9.0171 358.0209  5.00115638186589,0.049,0.0002713,5.00115638,352.9569,9.0171,358.0209
40349,O3B FM11,MEO,25067.02728086,1 40349U 14083B   25067.02728086 -.00000028  00000-0  00000-0 0    14,2 40349   0.0490 352.9806 0002714   9.1890 357.8253  5.00115650186594,0.049,0.0002714,5.0011565,352.9806,9.189,357.8253
40349,O3B FM11,MEO,25067.42706190,1 40349U 14083B   25067.42706190 -.00000029  00000-0  00000-0 0    11,2 40349   0.0490 353.0589 0002716   9.4620 357.4740  5.00115656186616,0.049,0.0002716,5.00115656,353.0589,9.462,357.474
40349,O3B FM11,MEO,25068.02673401,1 40349U 14083B   25068.02673401 -.00000030  00000-0  00000-0 0    18,2 40349   0.0490 353.0757 0002704  10.2543 356.6651  5.00115633186644,0.049,0.0002704,5.00115633,353.0757,10.2543,356.6651
40349,O3B FM11,MEO,25068.62640521,1 40349U 14083B   25068.62640521 -.00000031  00000-0  00000-0 0    12,2 40349   0.0490 353.1257 0002709  10.8765 355.9931  5.00115685186670,0.049,0.0002709,5.00115685,353.1257,10.8765,355.9931
40349,O3B FM11,MEO,25069.42596759,1 40349U 14083B   25069.42596759 -.00000031  00000-0  00000-0 0    14,2 40349   0.0490 353.1964 0002714  11.5707 355.2286  5.00115689186710,0.049,0.0002714,5.00115689,353.1964,11.5707,355.2286
40349,O3B FM11,MEO,25071.22498339,1 40349U 14083B   25071.22498339 -.00000031  00000-0  00000+0 0  8141,2 40349   0.0489 353.3505 0002725  13.1400 353.5067  5.00115688186965,0.0489,0.0002725,5.00115688,353.3505,13.14,353.5067
40349,O3B FM11,MEO,25071.42487410,1 40349U 14083B   25071.42487410 -.00000030  00000-0  00000-0 0    19,2 40349   0.0489 353.3638 0002726  13.2992 353.3342  5.00115684186814,0.0489,0.0002726,5.00115684,353.3638,13.2992,353.3342
40349,O3B FM11,MEO,25071.82465522,1 40349U 14083B   25071.82465522 -.00000030  00000-0  00000-0 0    13,2 40349   0.0489 353.3955 0002728  13.6475 352.9548  5.00115701186833,0.0489,0.0002728,5.00115701,353.3955,13.6475,352.9548
40349,O3B FM11,MEO,25074.62312434,1 40349U 14083B   25074.62312434 -.00000025  00000-0  00000-0 0    11,2 40349   0.0488 353.6126 0002740  15.9053 350.4832  5.00115714186974,0.0488,0.000274,5.00115714,353.6126,15.9053,350.4832
40349,O3B FM11,MEO,25076.02235879,1 40349U 14083B   25076.02235879 -.00000023  00000-0  00000+0 0  8154,2 40349   0.0487 353.6810 0002747  17.4115 348.9104  5.00115733187208,0.0487,0.0002747,5.00115733,353.681,17.4115,348.9104
40349,O3B FM11,MEO,25076.42213955,1 40349U 14083B   25076.42213955 -.00000022  00000-0  00000-0 0    16,2 40349   0.0487 353.7409 0002735  16.8492 349.4128  5.00115746187061,0.0487,0.0002735,5.00115746,353.7409,16.8492,349.4128
40349,O3B FM11,MEO,25076.82192203,1 40349U 14083B   25076.82192203 -.00000022  00000-0  00000-0 0    12,2 40349   0.0487 353.7716 0002768  19.2362 346.9968  5.00115712187080,0.0487,0.0002768,5.00115712,353.7716,19.2362,346.9968
40349,O3B FM11,MEO,25077.42159414,1 40349U 14083B   25077.42159414 -.00000021  00000-0  00000-0 0    15,2 40349   0.0487 353.8158 0002770  20.0047 346.1848  5.00115699187111,0.0487,0.000277,5.00115699,353.8158,20.0047,346.1848
40349,O3B FM11,MEO,25077.82137420,1 40349U 14083B   25077.82137420 -.00000021  00000-0  00000-0 0    12,2 40349   0.0487 353.8564 0002748  18.4735 347.6747  5.00115725187138,0.0487,0.0002748,5.00115725,353.8564,18.4735,347.6747
40349,O3B FM11,MEO,25078.22115562,1 40349U 14083B   25078.22115562 -.00000020  00000-0  00000-0 0    19,2 40349   0.0487 353.8919 0002753  19.1063 347.0069  5.00115717187154,0.0487,0.0002753,5.00115717,353.8919,19.1063,347.0069
40349,O3B FM11,MEO,25079.42049854,1 40349U 14083B   25079.42049854 -.00000019  00000-0  00000-0 0    10,2 40349   0.0486 354.0163 0002745  19.0498 346.9393  5.00115718187215,0.0486,0.0002745,5.00115718,354.0163,19.0498,346.9393
40349,O3B FM11,MEO,25080.02017018,1 40349U 14083B   25080.02017018 -.00000019  00000-0  00000-0 0    15,2 40349   0.0486 354.0878 0002747  19.4599 346.4580  5.00115716187240,0.0486,0.0002747,5.00115716,354.0878,19.4599,346.458
40349,O3B FM11,MEO,25080.61984194,1 40349U 14083B   25080.61984194 -.00000019  00000-0  00000-0 0    18,2 40349   0.0486 354.1615 0002749  19.8793 345.9653  5.00115703187276,0.0486,0.0002749,5.00115703,354.1615,19.8793,345.9653
